{
  "type": "FeatureCollection",
  "features": [
    {
      "type": "Feature",
      "properties": {
        "norad_id": 33886,
        "name": "IRIDIUM 33 DEB",
        "group": "iridium-33-debris",
        "lat": 48.566859045749936,
        "lon": 71.16387426149818,
        "alt_km": 775.8709919208122,
        "timestamp": "2025-12-13T03:42:11.657263+00:00",
        "meta_object_name": "IRIDIUM 33 DEB",
        "meta_object_id": "1997-051BF",
        "meta_epoch": "2025-12-12T07:43:58.791936",
        "meta_mean_motion": 14.36051386,
        "meta_eccentricity": 0.00122783,
        "meta_inclination": 86.3831,
        "meta_ra_of_asc_node": 67.4046,
        "meta_arg_of_pericenter": 243.5725,
        "meta_mean_anomaly": 186.1446,
        "meta_ephemeris_type": 0,
        "meta_classification_type": "U",
        "meta_norad_cat_id": 33886,
        "meta_element_set_no": 999,
        "meta_rev_at_epoch": 88046,
        "meta_bstar": 0.00031053404,
        "meta_mean_motion_dot": 9.23e-06,
        "meta_mean_motion_ddot": 0,
        "tle_line1": "1 33886U 97051BF  25346.32220824  .00000923  00000+0  31053-3 0  9991",
        "tle_line2": "2 33886  86.3831  67.4046 0012278 243.5725 186.1446 14.36051386880467"
      },
      "geometry": {
        "type": "Point",
        "coordinates": [
          71.16387426149818,
          48.566859045749936
        ]
      }
    },
    {
      "type": "Feature",
      "properties": {
        "norad_id": 33887,
        "name": "IRIDIUM 33 DEB",
        "group": "iridium-33-debris",
        "lat": -13.309261431589185,
        "lon": 2.337788948220995,
        "alt_km": 773.9299385489903,
        "timestamp": "2025-12-13T03:42:11.657274+00:00",
        "meta_object_name": "IRIDIUM 33 DEB",
        "meta_object_id": "1997-051BG",
        "meta_epoch": "2025-12-12T07:48:45.874944",
        "meta_mean_motion": 14.37220455,
        "meta_eccentricity": 0.00044071,
        "meta_inclination": 86.3045,
        "meta_ra_of_asc_node": 3.5708,
        "meta_arg_of_pericenter": 228.4515,
        "meta_mean_anomaly": 152.9462,
        "meta_ephemeris_type": 0,
        "meta_classification_type": "U",
        "meta_norad_cat_id": 33887,
        "meta_element_set_no": 999,
        "meta_rev_at_epoch": 88159,
        "meta_bstar": 0.000221312,
        "meta_mean_motion_dot": 6.78e-06,
        "meta_mean_motion_ddot": 0,
        "tle_line1": "1 33887U 97051BG  25346.32553096  .00000678  00000+0  22131-3 0  9996",
        "tle_line2": "2 33887  86.3045   3.5708 0004407 228.4515 152.9462 14.37220455881595"
      },
      "geometry": {
        "type": "Point",
        "coordinates": [
          2.337788948220995,
          -13.309261431589185
        ]
      }
    },
    {
      "type": "Feature",
      "properties": {
        "norad_id": 33953,
        "name": "IRIDIUM 33 DEB",
        "group": "iridium-33-debris",
        "lat": -49.35319256621248,
        "lon": -122.17694949266762,
        "alt_km": 723.2843864216838,
        "timestamp": "2025-12-13T03:42:11.657300+00:00",
        "meta_object_name": "IRIDIUM 33 DEB",
        "meta_object_id": "1997-051BN",
        "meta_epoch": "2025-12-12T05:28:32.173824",
        "meta_mean_motion": 14.55319488,
        "meta_eccentricity": 0.0018409,
        "meta_inclination": 86.3843,
        "meta_ra_of_asc_node": 54.0012,
        "meta_arg_of_pericenter": 104.433,
        "meta_mean_anomaly": 315.6568,
        "meta_ephemeris_type": 0,
        "meta_classification_type": "U",
        "meta_norad_cat_id": 33953,
        "meta_element_set_no": 999,
        "meta_rev_at_epoch": 88296,
        "meta_bstar": 0.0019554392,
        "meta_mean_motion_dot": 8.519e-05,
        "meta_mean_motion_ddot": 0,
        "tle_line1": "1 33953U 97051BN  25346.22815016  .00008519  00000+0  19554-2 0  9998",
        "tle_line2": "2 33953  86.3843  54.0012 0018409 104.4330 315.6568 14.55319488882961"
      },
      "geometry": {
        "type": "Point",
        "coordinates": [
          -122.17694949266762,
          -49.35319256621248
        ]
      }
    },
    {
      "type": "Feature",
      "properties": {
        "norad_id": 33960,
        "name": "IRIDIUM 33 DEB",
        "group": "iridium-33-debris",
        "lat": 77.40888479624265,
        "lon": -53.61929427384154,
        "alt_km": 600.7587054940241,
        "timestamp": "2025-12-13T03:42:11.657313+00:00",
        "meta_object_name": "IRIDIUM 33 DEB",
        "meta_object_id": "1997-051BV",
        "meta_epoch": "2025-12-11T20:52:13.312128",
        "meta_mean_motion": 14.85121731,
        "meta_eccentricity": 0.0007473,
        "meta_inclination": 86.253,
        "meta_ra_of_asc_node": 289.9247,
        "meta_arg_of_pericenter": 63.6989,
        "meta_mean_anomaly": 349.9861,
        "meta_ephemeris_type": 0,
        "meta_classification_type": "U",
        "meta_norad_cat_id": 33960,
        "meta_element_set_no": 999,
        "meta_rev_at_epoch": 88854,
        "meta_bstar": 0.0046476,
        "meta_mean_motion_dot": 0.00039972,
        "meta_mean_motion_ddot": 0,
        "tle_line1": "1 33960U 97051BV  25345.86959852  .00039972  00000+0  46476-2 0  9992",
        "tle_line2": "2 33960  86.2530 289.9247 0007473  63.6989 349.9861 14.85121731888546"
      },
      "geometry": {
        "type": "Point",
        "coordinates": [
          -53.61929427384154,
          77.40888479624265
        ]
      }
    },
    {
      "type": "Feature",
      "properties": {
        "norad_id": 33966,
        "name": "IRIDIUM 33 DEB",
        "group": "iridium-33-debris",
        "lat": -13.342424420028621,
        "lon": 44.99199439778733,
        "alt_km": 736.5084611564898,
        "timestamp": "2025-12-13T03:42:11.657323+00:00",
        "meta_object_name": "IRIDIUM 33 DEB",
        "meta_object_id": "1997-051CB",
        "meta_epoch": "2025-12-12T04:49:14.454336",
        "meta_mean_motion": 14.49591361,
        "meta_eccentricity": 0.00073539,
        "meta_inclination": 86.3923,
        "meta_ra_of_asc_node": 46.2584,
        "meta_arg_of_pericenter": 189.8927,
        "meta_mean_anomaly": 224.4541,
        "meta_ephemeris_type": 0,
        "meta_classification_type": "U",
        "meta_norad_cat_id": 33966,
        "meta_element_set_no": 999,
        "meta_rev_at_epoch": 88434,
        "meta_bstar": 0.00087368937,
        "meta_mean_motion_dot": 3.373e-05,
        "meta_mean_motion_ddot": 0,
        "tle_line1": "1 33966U 97051CB  25346.20086174  .00003373  00000+0  87369-3 0  9998",
        "tle_line2": "2 33966  86.3923  46.2584 0007353 189.8927 224.4541 14.49591361884343"
      },
      "geometry": {
        "type": "Point",
        "coordinates": [
          44.99199439778733,
          -13.342424420028621
        ]
      }
    },
    {
      "type": "Feature",
      "properties": {
        "norad_id": 34071,
        "name": "IRIDIUM 33 DEB",
        "group": "iridium-33-debris",
        "lat": 52.59889618726843,
        "lon": 22.442517435227487,
        "alt_km": 718.320980700898,
        "timestamp": "2025-12-13T03:42:11.657334+00:00",
        "meta_object_name": "IRIDIUM 33 DEB",
        "meta_object_id": "1997-051CE",
        "meta_epoch": "2025-12-12T02:36:29.156256",
        "meta_mean_motion": 14.49460742,
        "meta_eccentricity": 0.00099287,
        "meta_inclination": 86.346,
        "meta_ra_of_asc_node": 18.1025,
        "meta_arg_of_pericenter": 109.4154,
        "meta_mean_anomaly": 250.8124,
        "meta_ephemeris_type": 0,
        "meta_classification_type": "U",
        "meta_norad_cat_id": 34071,
        "meta_element_set_no": 999,
        "meta_rev_at_epoch": 88325,
        "meta_bstar": 0.000960108,
        "meta_mean_motion_dot": 3.696e-05,
        "meta_mean_motion_ddot": 0,
        "tle_line1": "1 34071U 97051CE  25346.10867079  .00003696  00000+0  96011-3 0  9998",
        "tle_line2": "2 34071  86.3460  18.1025 0009928 109.4154 250.8124 14.49460742883252"
      },
      "geometry": {
        "type": "Point",
        "coordinates": [
          22.442517435227487,
          52.59889618726843
        ]
      }
    },
    {
      "type": "Feature",
      "properties": {
        "norad_id": 34077,
        "name": "IRIDIUM 33 DEB",
        "group": "iridium-33-debris",
        "lat": -81.13109197912684,
        "lon": 27.431329241744333,
        "alt_km": 688.6536147177594,
        "timestamp": "2025-12-13T03:42:11.657345+00:00",
        "meta_object_name": "IRIDIUM 33 DEB",
        "meta_object_id": "1997-051CL",
        "meta_epoch": "2025-12-12T05:23:02.919840",
        "meta_mean_motion": 14.6483143,
        "meta_eccentricity": 0.00102947,
        "meta_inclination": 86.386,
        "meta_ra_of_asc_node": 51.7343,
        "meta_arg_of_pericenter": 41.6273,
        "meta_mean_anomaly": 15.6908,
        "meta_ephemeris_type": 0,
        "meta_classification_type": "U",
        "meta_norad_cat_id": 34077,
        "meta_element_set_no": 999,
        "meta_rev_at_epoch": 88325,
        "meta_bstar": 0.0022376542,
        "meta_mean_motion_dot": 0.00011982,
        "meta_mean_motion_ddot": 0,
        "tle_line1": "1 34077U 97051CL  25346.22433935  .00011982  00000+0  22377-2 0  9997",
        "tle_line2": "2 34077  86.3860  51.7343 0010294  41.6273  15.6908 14.64831430883255"
      },
      "geometry": {
        "type": "Point",
        "coordinates": [
          27.431329241744333,
          -81.13109197912684
        ]
      }
    }
  ]
}